ONEWEB-0226             
1 48793U 21045AC  23314.39884327  .00001623  00000+0  42769-2 0  9991
2 48793  87.8975  88.2934 0001503  78.4119 281.7180 13.15547019120590
ONEWEB-0224             
1 48794U 21045AD  23313.90605381  .00000135  00000+0  32330-3 0  9990
2 48794  87.8986  88.3990 0001394 118.3280 241.7991 13.15547786119334
ONEWEB-0233             
1 48795U 21045AE  23313.89893621  .00002439  00000+0  64431-2 0  9990
2 48795  87.8925  88.4396 0001446 103.7343 256.3949 13.15534744119341
ONEWEB-0190             
1 48796U 21045AF  23314.43053676 -.00001045  00000+0 -28092-2 0  9997
2 48796  87.8964  88.2798 0000886  44.9270 315.1931 13.15557591120613
ONEWEB-0236             
1 48797U 21045AG  23314.44798226  .00000181  00000+0  44774-3 0  9990
2 48797  87.8983  88.2563 0001407  99.6176 260.5113 13.15551268120505
ONEWEB-0248             
1 48798U 21045AH  23314.46065432  .00000061  00000+0  12759-3 0  9994
2 48798  87.8976  88.2636 0000725 114.4647 245.6559 13.15549420120662
ONEWEB-0225             
1 48799U 21045AJ  23314.10255621 -.00000091  00000+0 -27469-3 0  9996
2 48799  87.8947  88.3463 0000734 102.6386 257.4826 13.15549992120649
ONEWEB-0215             
1 48800U 21045AK  23313.92032900  .00000253  00000+0  63840-3 0  9992
2 48800  87.8974  88.3595 0000548  82.5003 277.6190 13.15548189119354
